{"type": "FeatureCollection", "features": [ {"type": "Feature", "properties": {"norad_id": 35480, "name": "IRIDIUM 33 DEB", "group": "iridium-33-debris", "lat": -26.23232512705777, "lon": -149.26365878979632, "alt_km": 729.4836382851217, "timestamp": "2025-12-03T10:52:57.840324+00:00", "meta": {"OBJECT_NAME": "IRIDIUM 33 DEB", "OBJECT_ID": "1997-051QA", "EPOCH": "2025-12-01T21:29:27.496896", "MEAN_MOTION": 14.49686619, "ECCENTRICITY": 0.00155495, "INCLINATION": 86.3575, "RA_OF_ASC_NODE": 29.6125, "ARG_OF_PERICENTER": 136.7189, "MEAN_ANOMALY": 223.524, "EPHEMERIS_TYPE": 0, "CLASSIFICATION_TYPE": "U", "NORAD_CAT_ID": 35480, "ELEMENT_SET_NO": 999, "REV_AT_EPOCH": 86874, "BSTAR": 0.000651702, "MEAN_MOTION_DOT": 2.53e-05, "MEAN_MOTION_DDOT": 0}, "tle": {"line1": "1 35480U 97051QA  25335.89545714  .00002530  00000+0  65170-3 0  9994", "line2": "2 35480  86.3575  29.6125 0015549 136.7189 223.5240 14.49686619868745"}}, "geometry": {"type": "Point", "coordinates": [-149.26365878979632, -26.23232512705777]}}, {"type": "Feature", "properties": {"norad_id": 35484, "name": "IRIDIUM 33 DEB", "group": "iridium-33-debris", "lat": -13.270870364315737, "lon": 177.94786488916006, "alt_km": 566.5241590111937, "timestamp": "2025-12-03T10:52:57.840335+00:00", "meta": {"OBJECT_NAME": "IRIDIUM 33 DEB", "OBJECT_ID": "1997-051QE", "EPOCH": "2025-12-01T19:32:14.692416", "MEAN_MOTION": 14.97587734, "ECCENTRICITY": 0.00218288, "INCLINATION": 86.3628, "RA_OF_ASC_NODE": 357.8533, "ARG_OF_PERICENTER": 162.6444, "MEAN_ANOMALY": 197.5538, "EPHEMERIS_TYPE": 0, "CLASSIFICATION_TYPE": "U", "NORAD_CAT_ID": 35484, "ELEMENT_SET_NO": 999, "REV_AT_EPOCH": 61852, "BSTAR": 0.0025030806, "MEAN_MOTION_DOT": 0.00029486, "MEAN_MOTION_DDOT": 0}, "tle": {"line1": "1 35484U 97051QE  25335.81405894  .00029486  00000+0  25031-2 0  9994", "line2": "2 35484  86.3628 357.8533 0021828 162.6444 197.5538 14.97587734618526"}}, "geometry": {"type": "Point", "coordinates": [177.94786488916006, -13.270870364315737]}}, {"type": "Feature", "properties": {"norad_id": 35488, "name": "IRIDIUM 33 DEB", "group": "iridium-33-debris", "lat": 84.45419557008636, "lon": 83.68666151090636, "alt_km": 593.5141144197569, "timestamp": "2025-12-03T10:52:57.840346+00:00", "meta": {"OBJECT_NAME": "IRIDIUM 33 DEB", "OBJECT_ID": "1997-051QJ", "EPOCH": "2025-12-02T15:01:28.223904", "MEAN_MOTION": 14.82653192, "ECCENTRICITY": 0.0030768, "INCLINATION": 86.3233, "RA_OF_ASC_NODE": 305.5399, "ARG_OF_PERICENTER": 74.7602, "MEAN_ANOMALY": 285.7019, "EPHEMERIS_TYPE": 0, "CLASSIFICATION_TYPE": "U", "NORAD_CAT_ID": 35488, "ELEMENT_SET_NO": 999, "REV_AT_EPOCH": 88116, "BSTAR": 0.0017350437, "MEAN_MOTION_DOT": 0.00014134, "MEAN_MOTION_DDOT": 0}, "tle": {"line1": "1 35488U 97051QJ  25336.62602111  .00014134  00000+0  17350-2 0  9998", "line2": "2 35488  86.3233 305.5399 0030768  74.7602 285.7019 14.82653192881166"}}, "geometry": {"type": "Point", "coordinates": [83.68666151090636, 84.45419557008636]}}, {"type": "Feature", "properties": {"norad_id": 35616, "name": "IRIDIUM 33 DEB", "group": "iridium-33-debris", "lat": -64.90200250148978, "lon": -17.8191068843477, "alt_km": 632.8833794142265, "timestamp": "2025-12-03T10:52:57.840357+00:00", "meta": {"OBJECT_NAME": "IRIDIUM 33 DEB", "OBJECT_ID": "1997-051QN", "EPOCH": "2025-12-01T18:38:49.911648", "MEAN_MOTION": 14.81359224, "ECCENTRICITY": 0.00086191, "INCLINATION": 86.3548, "RA_OF_ASC_NODE": 350.7677, "ARG_OF_PERICENTER": 204.4295, "MEAN_ANOMALY": 155.6519, "EPHEMERIS_TYPE": 0, "CLASSIFICATION_TYPE": "U", "NORAD_CAT_ID": 35616, "ELEMENT_SET_NO": 999, "REV_AT_EPOCH": 87412, "BSTAR": 0.0016385024, "MEAN_MOTION_DOT": 0.00012841, "MEAN_MOTION_DDOT": 0}, "tle": {"line1": "1 35616U 97051QN  25335.77696657  .00012841  00000+0  16385-2 0  9994", "line2": "2 35616  86.3548 350.7677 0008619 204.4295 155.6519 14.81359224874125"}}, "geometry": {"type": "Point", "coordinates": [-17.8191068843477, -64.90200250148978]}}, {"type": "Feature", "properties": {"norad_id": 35618, "name": "IRIDIUM 33 DEB", "group": "iridium-33-debris", "lat": -39.868069643714705, "lon": -5.500963263086834, "alt_km": 725.2580197071084, "timestamp": "2025-12-03T10:52:57.840367+00:00", "meta": {"OBJECT_NAME": "IRIDIUM 33 DEB", "OBJECT_ID": "1997-051QQ", "EPOCH": "2025-11-27T19:27:47.606688", "MEAN_MOTION": 14.52216193, "ECCENTRICITY": 0.00308317, "INCLINATION": 86.3414, "RA_OF_ASC_NODE": 0.0275, "ARG_OF_PERICENTER": 70.0508, "MEAN_ANOMALY": 290.4015, "EPHEMERIS_TYPE": 0, "CLASSIFICATION_TYPE": "U", "NORAD_CAT_ID": 35618, "ELEMENT_SET_NO": 999, "REV_AT_EPOCH": 65177, "BSTAR": 0.00046503481, "MEAN_MOTION_DOT": 1.919e-05, "MEAN_MOTION_DDOT": 0}, "tle": {"line1": "1 35618U 97051QQ  25331.81096767  .00001919  00000+0  46503-3 0  9993", "line2": "2 35618  86.3414   0.0275 0030831  70.0508 290.4015 14.52216193651771"}}, "geometry": {"type": "Point", "coordinates": [-5.500963263086834, -39.868069643714705]}}, {"type": "Feature", "properties": {"norad_id": 35620, "name": "IRIDIUM 33 DEB", "group": "iridium-33-debris", "lat": 67.16022699745537, "lon": -130.00622383944142, "alt_km": 836.8553149377967, "timestamp": "2025-12-03T10:52:57.840378+00:00", "meta": {"OBJECT_NAME": "IRIDIUM 33 DEB", "OBJECT_ID": "1997-051QS", "EPOCH": "2025-12-02T22:52:25.088160", "MEAN_MOTION": 14.37465338, "ECCENTRICITY": 0.0145309, "INCLINATION": 86.388, "RA_OF_ASC_NODE": 221.5792, "ARG_OF_PERICENTER": 291.0856, "MEAN_ANOMALY": 67.4857, "EPHEMERIS_TYPE": 0, "CLASSIFICATION_TYPE": "U", "NORAD_CAT_ID": 35620, "ELEMENT_SET_NO": 999, "REV_AT_EPOCH": 59825, "BSTAR": 0.0076536, "MEAN_MOTION_DOT": 0.00025951, "MEAN_MOTION_DDOT": 0}, "tle": {"line1": "1 35620U 97051QS  25336.95306815  .00025951  00000+0  76536-2 0  9994", "line2": "2 35620  86.3880 221.5792 0145309 291.0856  67.4857 14.37465338598252"}}, "geometry": {"type": "Point", "coordinates": [-130.00622383944142, 67.16022699745537]}}, {"type": "Feature", "properties": {"norad_id": 35622, "name": "IRIDIUM 33 DEB", "group": "iridium-33-debris", "lat": 70.85574254628767, "lon": 77.14491422998137, "alt_km": 554.1596076727428, "timestamp": "2025-12-03T10:52:57.840389+00:00", "meta": {"OBJECT_NAME": "IRIDIUM 33 DEB", "OBJECT_ID": "1997-051QU", "EPOCH": "2025-12-02T06:19:13.217952", "MEAN_MOTION": 15.02606041, "ECCENTRICITY": 0.0010695, "INCLINATION": 86.2044, "RA_OF_ASC_NODE": 268.7542, "ARG_OF_PERICENTER": 2.5731, "MEAN_ANOMALY": 152.2822, "EPHEMERIS_TYPE": 0, "CLASSIFICATION_TYPE": "U", "NORAD_CAT_ID": 35622, "ELEMENT_SET_NO": 999, "REV_AT_EPOCH": 87202, "BSTAR": 0.0056995, "MEAN_MOTION_DOT": 0.00076695, "MEAN_MOTION_DDOT": 0}, "tle": {"line1": "1 35622U 97051QU  25336.26334743  .00076695  00000+0  56995-2 0  9999", "line2": "2 35622  86.2044 268.7542 0010695   2.5731 152.2822 15.02606041872023"}}, "geometry": {"type": "Point", "coordinates": [77.14491422998137, 70.85574254628767]}}, {"type": "Feature", "properties": {"norad_id": 35628, "name": "IRIDIUM 33 DEB", "group": "iridium-33-debris", "lat": 70.04289657127018, "lon": 23.318422099812558, "alt_km": 658.1415280368228, "timestamp": "2025-12-03T10:52:57.840399+00:00", "meta": {"OBJECT_NAME": "IRIDIUM 33 DEB", "OBJECT_ID": "1997-051RA", "EPOCH": "2025-12-02T19:50:02.046048", "MEAN_MOTION": 14.67345428, "ECCENTRICITY": 0.0011633, "INCLINATION": 86.3582, "RA_OF_ASC_NODE": 13.4962, "ARG_OF_PERICENTER": 17.351, "MEAN_ANOMALY": 342.81, "EPHEMERIS_TYPE": 0, "CLASSIFICATION_TYPE": "U", "NORAD_CAT_ID": 35628, "ELEMENT_SET_NO": 999, "REV_AT_EPOCH": 86301, "BSTAR": 0.0016794, "MEAN_MOTION_DOT": 9.517e-05, "MEAN_MOTION_DDOT": 0}, "tle": {"line1": "1 35628U 97051RA  25336.82641257  .00009517  00000+0  16794-2 0  9990", "line2": "2 35628  86.3582  13.4962 0011633  17.3510 342.8100 14.67345428863014"}}, "geometry": {"type": "Point", "coordinates": [23.318422099812558, 70.04289657127018]}}, {"type": "Feature", "properties": {"norad_id": 35631, "name": "IRIDIUM 33 DEB", "group": "iridium-33-debris", "lat": -79.10663330716108, "lon": 5.704884283633137, "alt_km": 750.9452199573243, "timestamp": "2025-12-03T10:52:57.840410+00:00", "meta": {"OBJECT_NAME": "IRIDIUM 33 DEB", "OBJECT_ID": "1997-051RD", "EPOCH": "2025-12-01T09:32:13.809120", "MEAN_MOTION": 14.47260749, "ECCENTRICITY": 0.00179714, "INCLINATION": 86.3683, "RA_OF_ASC_NODE": 25.8593, "ARG_OF_PERICENTER": 152.8458, "MEAN_ANOMALY": 221.75, "EPHEMERIS_TYPE": 0, "CLASSIFICATION_TYPE": "U", "NORAD_CAT_ID": 35631, "ELEMENT_SET_NO": 999, "REV_AT_EPOCH": 87033, "BSTAR": 0.00039861832, "MEAN_MOTION_DOT": 1.48e-05, "MEAN_MOTION_DDOT": 0}, "tle": {"line1": "1 35631U 97051RD  25335.39738205  .00001480  00000+0  39862-3 0  9998", "line2": "2 35631  86.3683  25.8593 0017971 152.8458 221.7500 14.47260749870336"}}, "geometry": {"type": "Point", "coordinates": [5.704884283633137, -79.10663330716108]}}, {"type": "Feature", "properties": {"norad_id": 35680, "name": "IRIDIUM 33 DEB", "group": "iridium-33-debris", "lat": 56.90855392323921, "lon": 31.638161133507012, "alt_km": 851.1531547792547, "timestamp": "2025-12-03T10:52:57.840421+00:00", "meta": {"OBJECT_NAME": "IRIDIUM 33 DEB", "OBJECT_ID": "1997-051RJ", "EPOCH": "2025-12-01T22:00:09.279648", "MEAN_MOTION": 14.20616647, "ECCENTRICITY": 0.01501261, "INCLINATION": 86.103, "RA_OF_ASC_NODE": 26.3138, "ARG_OF_PERICENTER": 313.2693, "MEAN_ANOMALY": 168.1986, "EPHEMERIS_TYPE": 0, "CLASSIFICATION_TYPE": "U", "NORAD_CAT_ID": 35680, "ELEMENT_SET_NO": 999, "REV_AT_EPOCH": 60547, "BSTAR": 0.0036692718, "MEAN_MOTION_DOT": 8.864e-05, "MEAN_MOTION_DDOT": 0}, "tle": {"line1": "1 35680U 97051RJ  25335.91677407  .00008864  00000+0  36693-2 0  9997", "line2": "2 35680  86.1030  26.3138 0150126 313.2693 168.1986 14.20616647605475"}}, "geometry": {"type": "Point", "coordinates": [31.638161133507012, 56.90855392323921]}}]}